SBSS (USA 216)          
1 37168U 10048A   26068.88624904  .00004946  00000+0  24191-3 0  9993
2 37168  97.7474 312.3885 0082264 184.8326 306.5835 15.15724210837421
STARLINK-1362           
1 45538U 20025H   26068.46001677  .00001315  00000+0  56520-4 0  9998
2 45538  53.1615 102.0656 0001370  93.0960 267.0198 15.30206066325143
