[{"OBJECT_NAME":"SBSS (USA 216)","OBJECT_ID":"2010-048A","EPOCH":"2026-03-09T21:16:11.917056","MEAN_MOTION":15.1572421,"ECCENTRICITY":0.0082264,"INCLINATION":97.7474,"RA_OF_ASC_NODE":312.3885,"ARG_OF_PERICENTER":184.8326,"MEAN_ANOMALY":306.5835,"EPHEMERIS_TYPE":0,"CLASSIFICATION_TYPE":"U","NORAD_CAT_ID":37168,"ELEMENT_SET_NO":999,"REV_AT_EPOCH":83742,"BSTAR":0.00024191,"MEAN_MOTION_DOT":4.946e-5,"MEAN_MOTION_DDOT":0},{"OBJECT_NAME":"STARLINK-1362","OBJECT_ID":"2020-025H","EPOCH":"2026-03-09T11:02:25.448928","MEAN_MOTION":15.30206066,"ECCENTRICITY":0.00013706,"INCLINATION":53.1615,"RA_OF_ASC_NODE":102.0656,"ARG_OF_PERICENTER":93.096,"MEAN_ANOMALY":267.0198,"EPHEMERIS_TYPE":0,"CLASSIFICATION_TYPE":"U","NORAD_CAT_ID":45538,"ELEMENT_SET_NO":999,"REV_AT_EPOCH":32514,"BSTAR":5.6519661e-5,"MEAN_MOTION_DOT":1.315e-5,"MEAN_MOTION_DDOT":0}]
